COSMOS 2361 [-]         
1 25590U 98076A   22274.11957409  .00000052  00000+0  40625-4 0  9991
2 25590  82.9320 128.0701 0030244 275.2397 243.8221 13.73028717190735
COSMOS 2378 [-]         
1 26818U 01023A   22274.21055016  .00000079  00000+0  67672-4 0  9995
2 26818  82.9287 145.8504 0031922 219.1517 140.7332 13.73976300 68837
COSMOS 2389 [-]         
1 27436U 02026A   22274.52973868  .00000038  00000+0  23660-4 0  9998
2 27436  82.9466  91.5072 0047693  80.0768 334.5380 13.74982654 21009
COSMOS 2398 [-]         
1 27818U 03023A   22274.21598148  .00000029  00000+0  14542-4 0  9999
2 27818  82.9473  53.6669 0032439 116.8673 243.5804 13.72217583967893
COSMOS 2407 [+]         
1 28380U 04028A   22274.29949242  .00000062  00000+0  47135-4 0  9994
2 28380  82.9654 358.0664 0040626  81.6619 278.9150 13.76121129913714
COSMOS 2414 [+]         
1 28521U 05002A   22274.60416114  .00000080  00000+0  53830-4 0  9995
2 28521  82.9545 347.9852 0039048 230.4323 129.3392 13.87666446896274
COSMOS 2429 [-]         
1 32052U 07038A   22274.54505714  .00000061  00000+0  47613-4 0  9999
2 32052  82.9779 124.1621 0039615  58.9587 301.5449 13.74970098755482
COSMOS 2454 [-]         
1 35635U 09039A   22274.49729868  .00000084  00000+0  55531-4 0  9997
2 35635  82.9591 334.2177 0019230 171.0008 189.1516 13.89695583669422
COSMOS 2463 [+]         
1 36519U 10017A   22274.46048749  .00000051  00000+0  40291-4 0  9997
2 36519  82.9634 164.9598 0034983 289.9162 242.6256 13.71480638622226
